{
"type": "FeatureCollection",
"name": "node_gdf",
"crs": { "type": "name", "properties": { "name": "urn:ogc:def:crs:OGC:1.3:CRS84" } },
"features": [
{ "type": "Feature", "properties": { "node_id": 1, "center": "(39.997248322751226, 116.3292692542357)" }, "geometry": { "type": "MultiPolygon", "coordinates": [ [ [ [ 116.32325254382549, 39.995851674823029 ], [ 116.323720760360132, 39.995851674823029 ], [ 116.323720760360132, 39.99549285319636 ], [ 116.32325254382549, 39.99549285319636 ], [ 116.32325254382549, 39.995851674823029 ] ] ], [ [ [ 116.32325249855252, 39.996211391354379 ], [ 116.323720715080796, 39.996211391354379 ], [ 116.323720715080796, 39.995852569746127 ], [ 116.32325249855252, 39.995852569746127 ], [ 116.32325249855252, 39.996211391354379 ] ] ], [ [ [ 116.322784235333572, 39.996212286277441 ], [ 116.32325245327884, 39.996212286277441 ], [ 116.32325245327884, 39.995853463836298 ], [ 116.322784235333572, 39.995853463836298 ], [ 116.322784235333572, 39.996212286277441 ] ] ], [ [ [ 116.322315970600187, 39.996213180367562 ], [ 116.322784190065548, 39.996213180367562 ], [ 116.322784190065548, 39.995854357014061 ], [ 116.322315970600187, 39.995854357014061 ], [ 116.322315970600187, 39.996213180367562 ] ] ] ] } },
{ "type": "Feature", "properties": { "node_id": 2, "center": "(39.997338255661276, 116.33091190688506)" }, "geometry": { "type": "MultiPolygon", "coordinates": [ [ [ [ 116.324657325444505, 39.995848985852732 ], [ 116.325125538348374, 39.995848985852732 ], [ 116.325125538348374, 39.995490166246697 ], [ 116.324657325444505, 39.995490166246697 ], [ 116.324657325444505, 39.995848985852732 ] ] ], [ [ [ 116.32465728015454, 39.996208702384145 ], [ 116.325125493051999, 39.996208702384145 ], [ 116.325125493051999, 39.995849882796556 ], [ 116.32465728015454, 39.995849882796556 ], [ 116.32465728015454, 39.996208702384145 ] ] ], [ [ [ 116.324189020859649, 39.9958507791466 ], [ 116.324189020859649, 39.996209599327955 ], [ 116.324657234863849, 39.996209599327955 ], [ 116.324657234863849, 39.996568418896935 ], [ 116.3251254477549, 39.996568418896935 ], [ 116.3251254477549, 39.996209599327955 ], [ 116.324657234863864, 39.996209599327955 ], [ 116.324657234863864, 39.9958507791466 ], [ 116.324189020859649, 39.9958507791466 ] ] ] ] } },
{ "type": "Feature", "properties": { "node_id": 3, "center": "(40.00302201557638, 116.32136105505234)" }, "geometry": { "type": "MultiPolygon", "coordinates": [ [ [ [ 116.315291070563958, 40.001622183696647 ], [ 116.315759324974607, 40.001622183696647 ], [ 116.315759324974607, 40.001263337521642 ], [ 116.315291070563958, 40.001263337521642 ], [ 116.315291070563958, 40.001622183696647 ] ] ], [ [ [ 116.314822767821042, 40.001623053754159 ], [ 116.315291025372616, 40.001623053754159 ], [ 116.315291025372616, 40.001264205417506 ], [ 116.314822767821042, 40.001264205417506 ], [ 116.314822767821042, 40.001623053754159 ] ] ], [ [ [ 116.315291025372616, 40.001981899908202 ], [ 116.315759279777268, 40.001981899908202 ], [ 116.315759279777268, 40.001623053754159 ], [ 116.315291025372616, 40.001623053754159 ], [ 116.315291025372616, 40.001981899908202 ] ] ], [ [ [ 116.315290980180563, 40.001982769965544 ], [ 116.315290980180563, 40.001623921649845 ], [ 116.314822722634958, 40.001623921649845 ], [ 116.314822722634958, 40.001982769965544 ], [ 116.315290980180563, 40.001982769965544 ] ] ], [ [ [ 116.315290934987786, 40.002342486155619 ], [ 116.315290934987786, 40.001983637861052 ], [ 116.314822677448163, 40.001983637861052 ], [ 116.314822677448163, 40.002342486155619 ], [ 116.315290934987786, 40.002342486155619 ] ] ] ] } },
{ "type": "Feature", "properties": { "node_id": 4, "center": "(40.00633154666619, 116.32703993992584)" }, "geometry": { "type": "MultiPolygon", "coordinates": [ [ [ [ 116.32091003492863, 40.004849937583309 ], [ 116.32091003492863, 40.005208763635608 ], [ 116.321378259414161, 40.005208763635608 ], [ 116.321378259414161, 40.004849937583309 ], [ 116.32091003492863, 40.004849937583309 ] ] ], [ [ [ 116.320441763248439, 40.004850826317309 ], [ 116.320441763248439, 40.005209653598598 ], [ 116.320909989665111, 40.005209653598598 ], [ 116.320909989665111, 40.004850826317309 ], [ 116.320441763248439, 40.004850826317309 ] ] ] ] } },
{ "type": "Feature", "properties": { "node_id": 5, "center": "(40.005791949205886, 116.32774393391844)" }, "geometry": { "type": "MultiPolygon", "coordinates": [ [ [ [ 116.32137839521927, 40.004129615521776 ], [ 116.32137839521927, 40.004488440468897 ], [ 116.32184661788861, 40.004488440468897 ], [ 116.32184661788861, 40.004129615521776 ], [ 116.32137839521927, 40.004129615521776 ] ] ], [ [ [ 116.321378349951615, 40.004489331582242 ], [ 116.321378349951615, 40.004848156506981 ], [ 116.32184657261466, 40.004848156506981 ], [ 116.32184657261466, 40.004489331582242 ], [ 116.321378349951615, 40.004489331582242 ] ] ] ] } },
{ "type": "Feature", "properties": { "node_id": 6, "center": "(40.01097535511236, 116.3286825925752)" }, "geometry": { "type": "MultiPolygon", "coordinates": [ [ [ [ 116.322782514646192, 40.009522677523435 ], [ 116.322782514646192, 40.009163854967873 ], [ 116.32231429541514, 40.009163854967873 ], [ 116.32231429541514, 40.009522677523435 ], [ 116.322782514646192, 40.009522677523435 ] ] ], [ [ [ 116.322782469351012, 40.009882393229731 ], [ 116.322782469351012, 40.010241214823047 ], [ 116.323250687048613, 40.010241214823047 ], [ 116.323250687048613, 40.009882393229731 ], [ 116.322782469351026, 40.009882393229731 ], [ 116.322782469351026, 40.009523570698889 ], [ 116.322314250126311, 40.009523570698889 ], [ 116.322314250126311, 40.009882393229731 ], [ 116.322782469351012, 40.009882393229731 ] ] ], [ [ [ 116.322782424055148, 40.010242108911072 ], [ 116.322782424055148, 40.00988328640512 ], [ 116.322314204836758, 40.00988328640512 ], [ 116.322314204836758, 40.010242108911072 ], [ 116.322782424055148, 40.010242108911072 ] ] ], [ [ [ 116.322314159546508, 40.009884178588472 ], [ 116.321845938704385, 40.009884178588472 ], [ 116.321845938704385, 40.010243002086391 ], [ 116.322314159546508, 40.010243002086391 ], [ 116.322314159546508, 40.009884178588472 ] ] ], [ [ [ 116.322782378758561, 40.010243002086398 ], [ 116.322314159546508, 40.010243002086398 ], [ 116.322314159546508, 40.010601824567296 ], [ 116.322782378758561, 40.010601824567296 ], [ 116.322782378758561, 40.010243002086398 ] ] ], [ [ [ 116.322314114255533, 40.010602717742543 ], [ 116.322314114255533, 40.010243894269671 ], [ 116.321845893419734, 40.010243894269671 ], [ 116.321845893419734, 40.010602717742543 ], [ 116.322314114255533, 40.010602717742543 ] ] ], [ [ [ 116.322782650527401, 40.008084707627738 ], [ 116.322314431277348, 40.008084707627738 ], [ 116.322314431277348, 40.008443530256464 ], [ 116.322782650527401, 40.008443530256464 ], [ 116.322782650527401, 40.008084707627738 ] ] ], [ [ [ 116.32278260523438, 40.008444423432131 ], [ 116.322314385990651, 40.008444423432131 ], [ 116.322314385990651, 40.008803246036635 ], [ 116.32278260523438, 40.008803246036635 ], [ 116.32278260523438, 40.008444423432131 ] ] ], [ [ [ 116.322782559940634, 40.009162961792349 ], [ 116.322782559940634, 40.008804139212231 ], [ 116.322314340703244, 40.008804139212231 ], [ 116.322314340703244, 40.009162961792349 ], [ 116.322782559940634, 40.009162961792349 ] ] ], [ [ [ 116.323250641746384, 40.010242108911079 ], [ 116.322782424055134, 40.010242108911079 ], [ 116.322782424055134, 40.010600930479335 ], [ 116.323250641746384, 40.010600930479335 ], [ 116.323250641746384, 40.010242108911079 ] ] ] ] } },
{ "type": "Feature", "properties": { "node_id": 7, "center": "(39.99877718222206, 116.3341972121838)" }, "geometry": { "type": "MultiPolygon", "coordinates": [ [ [ [ 116.32793493421201, 39.99728156336036 ], [ 116.328403142253492, 39.99728156336036 ], [ 116.328403142253492, 39.99692274574209 ], [ 116.32793493421201, 39.99692274574209 ], [ 116.32793493421201, 39.99728156336036 ] ] ], [ [ [ 116.327934888878971, 39.997641279816172 ], [ 116.328403096913945, 39.997641279816172 ], [ 116.328403096913945, 39.997282462217065 ], [ 116.327934888878971, 39.997282462217065 ], [ 116.327934888878971, 39.997641279816172 ] ] ], [ [ [ 116.327466635131955, 39.997283361041504 ], [ 116.327466635131955, 39.997642178672919 ], [ 116.327934843545222, 39.997642178672919 ], [ 116.327934843545222, 39.997283361041504 ], [ 116.327466635131955, 39.997283361041504 ] ] ], [ [ [ 116.328403051573673, 39.998000996252692 ], [ 116.328403051573673, 39.997642178672919 ], [ 116.327934843545222, 39.997642178672919 ], [ 116.327934843545222, 39.998000996252692 ], [ 116.328403051573673, 39.998000996252692 ] ] ] ] } },
{ "type": "Feature", "properties": { "node_id": 8, "center": "(40.00615168084609, 116.33548786783686)" }, "geometry": { "type": "MultiPolygon", "coordinates": [ [ [ [ 116.32933874114363, 40.004832908698837 ], [ 116.329806948539982, 40.004832908698837 ], [ 116.329806948539982, 40.00447409113184 ], [ 116.32933874114363, 40.00447409113184 ], [ 116.32933874114363, 40.004832908698837 ] ] ], [ [ [ 116.328870488316952, 40.004833807170122 ], [ 116.329338695778148, 40.004833807170122 ], [ 116.329338695778148, 40.004474989812408 ], [ 116.328870488316952, 40.004474989812408 ], [ 116.328870488316952, 40.004833807170122 ] ] ], [ [ [ 116.329338695778148, 40.005192624714454 ], [ 116.329806903167949, 40.005192624714454 ], [ 116.329806903167949, 40.004833807170122 ], [ 116.329338695778148, 40.004833807170122 ], [ 116.329338695778148, 40.005192624714454 ] ] ], [ [ [ 116.328870442957296, 40.005193523185788 ], [ 116.329338650411941, 40.005193523185788 ], [ 116.329338650411941, 40.00483470585074 ], [ 116.328870442957296, 40.00483470585074 ], [ 116.328870442957296, 40.005193523185788 ] ] ] ] } },
{ "type": "Feature", "properties": { "node_id": 9, "center": "(40.010648326348544, 116.32657061059746)" }, "geometry": { "type": "MultiPolygon", "coordinates": [ [ [ [ 116.320441220105636, 40.009167416958533 ], [ 116.320441220105636, 40.009526243956458 ], [ 116.320909446447217, 40.009526243956458 ], [ 116.320909446447217, 40.009167416958533 ], [ 116.320441220105636, 40.009167416958533 ] ] ], [ [ [ 116.319972946463977, 40.009168304383465 ], [ 116.319972946463977, 40.009527132689207 ], [ 116.320441174839104, 40.009527132689207 ], [ 116.320441174839104, 40.009168304383465 ], [ 116.319972946463977, 40.009168304383465 ] ] ] ] } },
{ "type": "Feature", "properties": { "node_id": 10, "center": "(40.00651141248628, 116.32258131130614)" }, "geometry": { "type": "MultiPolygon", "coordinates": [ [ [ [ 116.316695508271792, 40.00521672246218 ], [ 116.317163753796279, 40.00521672246218 ], [ 116.317163753796279, 40.004857882528903 ], [ 116.316695508271792, 40.004857882528903 ], [ 116.316695508271792, 40.00521672246218 ] ] ], [ [ [ 116.316695463057385, 40.005217598543084 ], [ 116.316695463057385, 40.005576438453708 ], [ 116.317163708575777, 40.005576438453708 ], [ 116.317163708575777, 40.005217598543084 ], [ 116.3166954630574, 40.005217598543084 ], [ 116.3166954630574, 40.004858756678587 ], [ 116.316227214690727, 40.004858756678587 ], [ 116.316227214690727, 40.005217598543084 ], [ 116.316695463057385, 40.005217598543084 ] ] ], [ [ [ 116.31622716948165, 40.005218472692604 ], [ 116.31622716948165, 40.00485962881983 ], [ 116.315758918172847, 40.00485962881983 ], [ 116.315758918172847, 40.005218472692604 ], [ 116.31622716948165, 40.005218472692604 ] ] ], [ [ [ 116.316695417842269, 40.00557731453447 ], [ 116.316695417842269, 40.005218472692604 ], [ 116.31622716948165, 40.005218472692604 ], [ 116.31622716948165, 40.00557731453447 ], [ 116.316695417842269, 40.00557731453447 ] ] ], [ [ [ 116.316227124271876, 40.005578188683828 ], [ 116.316227124271876, 40.005219344833684 ], [ 116.315758872969084, 40.005219344833684 ], [ 116.315758872969084, 40.005578188683828 ], [ 116.316227124271876, 40.005578188683828 ] ] ] ] } },
{ "type": "Feature", "properties": { "node_id": 11, "center": "(39.99607919492058, 116.32750926925422)" }, "geometry": { "type": "MultiPolygon", "coordinates": [ [ [ [ 116.321379617176333, 39.994776099496512 ], [ 116.321847840015622, 39.994776099496512 ], [ 116.321847840015622, 39.994417274007859 ], [ 116.321379617176333, 39.994417274007859 ], [ 116.321379617176333, 39.994776099496512 ] ] ], [ [ [ 116.320911347260434, 39.994776990611797 ], [ 116.321379571927935, 39.994776990611797 ], [ 116.321379571927935, 39.994418163973243 ], [ 116.320911347260434, 39.994418163973243 ], [ 116.320911347260434, 39.994776990611797 ] ] ], [ [ [ 116.321379571927935, 39.995135816082559 ], [ 116.321847794760927, 39.995135816082559 ], [ 116.321847794760927, 39.994776990611804 ], [ 116.321379571927935, 39.994776990611804 ], [ 116.321379571927935, 39.995135816082559 ] ] ], [ [ [ 116.320911302017606, 39.995136707197773 ], [ 116.321379526678825, 39.995136707197773 ], [ 116.321379526678825, 39.994777880577111 ], [ 116.320911302017606, 39.994777880577111 ], [ 116.320911302017606, 39.995136707197773 ] ] ] ] } },
{ "type": "Feature", "properties": { "node_id": 12, "center": "(39.99841745058186, 116.32539728727647)" }, "geometry": { "type": "MultiPolygon", "coordinates": [ [ [ [ 116.319037975990881, 39.996580010107643 ], [ 116.319037975990881, 39.996938842023468 ], [ 116.31950620895546, 39.996938842023468 ], [ 116.31950620895546, 39.996580010107643 ], [ 116.319037975990881, 39.996580010107643 ] ] ], [ [ [ 116.319037930765802, 39.997298558497818 ], [ 116.319506163724199, 39.997298558497818 ], [ 116.319506163724199, 39.99693972660085 ], [ 116.319037930765802, 39.99693972660085 ], [ 116.319037930765802, 39.997298558497818 ] ] ], [ [ [ 116.319037885540013, 39.997658274953032 ], [ 116.319506118492214, 39.997658274953032 ], [ 116.319506118492214, 39.997299443075086 ], [ 116.319037885540013, 39.997299443075086 ], [ 116.319037885540013, 39.997658274953032 ] ] ] ] } },
{ "type": "Feature", "properties": { "node_id": 13, "center": "(40.00021610878285, 116.3291519219036)" }, "geometry": { "type": "MultiPolygon", "coordinates": [ [ [ [ 116.323720398105479, 39.999088227244449 ], [ 116.324188613268944, 39.999088227244449 ], [ 116.324188613268944, 39.998729406542928 ], [ 116.323720398105479, 39.998729406542928 ], [ 116.323720398105479, 39.999088227244449 ] ] ], [ [ [ 116.323252136343115, 39.999089122920594 ], [ 116.323720352820445, 39.999089122920594 ], [ 116.323720352820445, 39.998730301465713 ], [ 116.323252136343115, 39.998730301465713 ], [ 116.323252136343115, 39.999089122920594 ] ] ], [ [ [ 116.322783873169243, 39.999090017843336 ], [ 116.323252091063722, 39.999090017843336 ], [ 116.323252091063722, 39.998731195555507 ], [ 116.322783873169243, 39.998731195555507 ], [ 116.322783873169243, 39.999090017843336 ] ] ], [ [ [ 116.322783827895506, 39.999090911933081 ], [ 116.322783827895506, 39.998732088732837 ], [ 116.322315608480793, 39.998732088732837 ], [ 116.322315608480793, 39.999090911933081 ], [ 116.322783827895506, 39.999090911933081 ] ] ], [ [ [ 116.322315563212669, 39.999091805110353 ], [ 116.322315563212669, 39.998732980918362 ], [ 116.321847342174792, 39.998732980918362 ], [ 116.321847342174792, 39.999091805110353 ], [ 116.322315563212669, 39.999091805110353 ] ] ] ] } },
{ "type": "Feature", "properties": { "node_id": 14, "center": "(40.00319674237304, 116.32787802801226)" }, "geometry": { "type": "MultiPolygon", "coordinates": [ [ [ [ 116.321378802596072, 40.001250995135507 ], [ 116.321847025322072, 40.001250995135507 ], [ 116.321847025322072, 40.000892169994415 ], [ 116.321378802596072, 40.000892169994415 ], [ 116.321378802596072, 40.001250995135507 ] ] ], [ [ [ 116.321378757334841, 40.001610711369722 ], [ 116.321846980054531, 40.001610711369722 ], [ 116.321846980054531, 40.001969535397883 ], [ 116.322315201041889, 40.001969535397883 ], [ 116.322315201041889, 40.001610711369722 ], [ 116.321846980054545, 40.001610711369722 ], [ 116.321846980054545, 40.00125188624952 ], [ 116.321378757334841, 40.00125188624952 ], [ 116.321378757334841, 40.001610711369722 ] ] ], [ [ [ 116.321846934786294, 40.001970427582819 ], [ 116.321846934786294, 40.001611602483671 ], [ 116.321378712072899, 40.001611602483671 ], [ 116.321378712072899, 40.001970427582819 ], [ 116.321846934786294, 40.001970427582819 ] ] ], [ [ [ 116.321846889517332, 40.002330143774614 ], [ 116.321846889517332, 40.00268896776015 ], [ 116.322315110492056, 40.00268896776015 ], [ 116.322315110492056, 40.002330143774614 ], [ 116.321846889517346, 40.002330143774614 ], [ 116.321846889517346, 40.00197131869669 ], [ 116.321378666810233, 40.00197131869669 ], [ 116.321378666810233, 40.002330143774614 ], [ 116.321846889517332, 40.002330143774614 ] ] ], [ [ [ 116.321846844247673, 40.002689859944951 ], [ 116.321846844247673, 40.002331034888407 ], [ 116.321378621546856, 40.002331034888407 ], [ 116.321378621546856, 40.002689859944951 ], [ 116.321846844247673, 40.002689859944951 ] ] ] ] } },
{ "type": "Feature", "properties": { "node_id": 15, "center": "(40.003228861269484, 116.32973858356408)" }, "geometry": { "type": "MultiPolygon", "coordinates": [ [ [ [ 116.323251819372402, 40.001607136996022 ], [ 116.323720035805152, 40.001607136996022 ], [ 116.323720035805152, 40.001965957533479 ], [ 116.324188250917544, 40.001965957533479 ], [ 116.324188250917544, 40.001607136996022 ], [ 116.323720035805167, 40.001607136996022 ], [ 116.323720035805167, 40.001248315684066 ], [ 116.323251819372402, 40.001248315684066 ], [ 116.323251819372402, 40.001607136996022 ] ] ], [ [ [ 116.323719990514391, 40.001966853209339 ], [ 116.323719990514391, 40.002325673725537 ], [ 116.324188205620402, 40.002325673725537 ], [ 116.324188205620402, 40.001966853209339 ], [ 116.323719990514405, 40.001966853209339 ], [ 116.323719990514405, 40.001608031918465 ], [ 116.323251774088007, 40.001608031918465 ], [ 116.323251774088007, 40.001966853209339 ], [ 116.323719990514391, 40.001966853209339 ] ] ], [ [ [ 116.323251728802916, 40.001967748131733 ], [ 116.323251728802916, 40.001608926007854 ], [ 116.322783510959226, 40.001608926007854 ], [ 116.322783510959226, 40.001967748131733 ], [ 116.323251728802916, 40.001967748131733 ] ] ], [ [ [ 116.324656464812961, 40.002324777375968 ], [ 116.324656464812961, 40.001965957533479 ], [ 116.324188250917544, 40.001965957533479 ], [ 116.324188250917544, 40.002324777375968 ], [ 116.324656464812961, 40.002324777375968 ] ] ], [ [ [ 116.323719945222948, 40.002326569401362 ], [ 116.323719945222948, 40.001967748131733 ], [ 116.323251728802916, 40.001967748131733 ], [ 116.323251728802916, 40.002326569401362 ], [ 116.323719945222948, 40.002326569401362 ] ] ], [ [ [ 116.3232516835171, 40.002327464323713 ], [ 116.3232516835171, 40.001968642221073 ], [ 116.322783465679763, 40.001968642221073 ], [ 116.322783465679763, 40.002327464323713 ], [ 116.3232516835171, 40.002327464323713 ] ] ] ] } }
]
}
